OBJECT_NAME,OBJECT_ID,EPOCH,MEAN_MOTION,ECCENTRICITY,INCLINATION,RA_OF_ASC_NODE,ARG_OF_PERICENTER,MEAN_ANOMALY,EPHEMERIS_TYPE,CLASSIFICATION_TYPE,NORAD_CAT_ID,ELEMENT_SET_NO,REV_AT_EPOCH,BSTAR,MEAN_MOTION_DOT,MEAN_MOTION_DDOT
PROBA-1,2001-049B,2026-07-06T07:39:20.760192,15.07582345,.0056077,97.9595,196.5203,59.0635,301.6087,0,U,26958,999,34650,.10657902E-3,.1608E-4,0
CUTE-1 (CO-55),2003-031E,2026-07-06T00:05:51.542592,14.24347598,.00105732,98.6737,195.3263,126.4787,233.7367,0,U,27844,999,19435,.15365181E-3,.312E-5,0
CUBESAT XI-IV (CO-57),2003-031J,2026-07-06T00:02:50.914752,14.23631104,.00101586,98.6770,195.0217,143.6881,216.4988,0,U,27848,999,19405,.13358001E-3,.261E-5,0
APRIZESAT 4,2009-041D,2026-07-06T04:55:30.550944,14.83905551,.00419158,98.1406,262.9045,259.5466,100.1023,0,U,35684,999,91418,.97265558E-4,.761E-5,0
APRIZESAT 3,2009-041F,2026-07-05T22:58:32.192256,14.96291448,.0061563,98.2082,341.0828,6.2116,353.9853,0,U,35686,999,91918,.129522E-3,.1451E-4,0
PROBA-2,2009-059B,2026-07-06T02:02:18.899808,14.54870953,.00123968,98.2456,10.1762,218.0288,142.0035,0,U,36037,999,88427,.62442824E-4,.223E-5,0
APRIZESAT 5,2011-044E,2026-07-06T01:24:24.046560,14.81116863,.00509628,98.2450,120.6344,302.9144,56.7171,0,U,37792,999,80158,.14996118E-3,.1131E-4,0
APRIZESAT 6,2011-044F,2026-07-06T07:56:01.940064,14.76947676,.00437524,98.2347,98.2200,26.3795,92.6185,0,U,37793,999,79997,.13414624E-3,.902E-5,0
PROBA-V,2013-021A,2026-07-06T00:37:02.458560,14.23602059,.00054231,98.3597,164.7033,80.6157,279.5636,0,U,39159,999,68379,.74533771E-4,.129E-5,0
APRIZESAT 7,2013-066A,2026-07-06T06:33:12.375360,14.91605877,.00366451,97.7717,140.2197,145.9654,214.3926,0,U,39416,999,68407,.13612169E-3,.1326E-4,0
APRIZESAT 8,2013-066K,2026-07-05T20:09:29.376576,14.87686334,.00447656,97.8226,134.0486,223.1684,136.6020,0,U,39425,999,68244,.11012168E-3,.964E-5,0
BUGSAT-1 (TITA),2014-033E,2026-07-06T05:56:23.985312,15.15816583,.00291004,98.0429,280.9137,114.9980,245.4278,0,U,40014,999,65872,.2861122E-3,.5449E-4,0
SAUDISAT 4,2014-033G,2026-07-05T23:41:44.589696,14.79568889,.00450505,97.7607,332.4742,14.0716,346.1740,0,U,40016,999,64885,.9480291E-4,.669E-5,0
APRIZESAT 9,2014-033J,2026-07-05T19:19:13.187136,14.74243575,.00670451,97.9084,319.5508,139.5877,221.0341,0,U,40018,999,64630,.13587616E-3,.878E-5,0
APRIZESAT 10,2014-033K,2026-07-06T07:26:53.504736,14.70903648,.00780493,97.9673,313.8457,211.8706,147.7766,0,U,40019,999,64506,.11047485E-3,.655E-5,0
TECHDEMOSAT-1 (TDS-1),2014-037H,2026-07-05T22:27:06.713568,15.13590711,.0006033,98.3823,181.0104,189.3190,170.7927,0,U,40076,999,65106,.54037857E-3,.9631E-4,0
TECHNOSAT,2017-042E,2026-07-05T23:57:44.521344,15.05069372,.00181962,97.4297,343.9433,33.4023,326.8348,0,U,42829,999,48953,.26571452E-3,.3731E-4,0
FLYING LAPTOP,2017-042G,2026-07-06T07:34:18.977088,15.01272389,.00199765,97.4782,342.1225,60.6692,299.6525,0,U,42831,999,48932,.21638834E-3,.2735E-4,0
HAWK-A,2018-099H,2026-07-06T02:48:57.915936,15.24885619,.00338001,97.3899,239.1079,216.3237,143.5707,0,U,43765,999,41598,.2965996E-3,.7423E-4,0
HAWK-B,2018-099AN,2026-07-06T02:17:59.953056,15.23045429,.00306134,97.3947,238.4620,234.9860,124.8503,0,U,43794,999,41591,.30931686E-3,.7307E-4,0
HAWK-C,2018-099AT,2026-07-06T02:47:26.472768,15.28393505,.00394274,97.3876,240.1128,216.2801,143.5764,0,U,43799,999,41680,.32860353E-3,.9221E-4,0
SALSAT,2020-068K,2026-07-05T23:33:58.355424,15.30081867,.00083275,97.8857,191.1942,228.1198,131.9331,0,U,46495,999,31823,.29469816E-3,.8505E-4,0
HAWK-2C,2021-006CT,2026-07-06T03:00:04.513536,15.34909766,.00083943,97.2267,231.0584,127.0137,233.1876,0,U,47502,999,30240,.20914457E-3,.701E-4,0
HAWK-2A,2021-006CW,2026-07-06T03:03:24.250464,15.34924046,.00078641,97.2307,231.7496,129.9039,230.2897,0,U,47505,999,30240,.20980118E-3,.7034E-4,0
HAWK-2B,2021-006CZ,2026-07-06T02:55:09.135264,15.35046266,.00084458,97.2178,230.0457,128.4869,231.7134,0,U,47508,999,30240,.24428787E-3,.8238E-4,0
HAWK-3B,2021-059BE,2026-07-06T02:56:05.258112,15.71239471,.00036957,97.6647,25.6428,234.7676,125.3240,0,U,48931,999,28082,.36589227E-3,.46281E-3,0
HAWK-3C,2021-059BX,2026-07-06T02:55:38.430912,15.71235537,.00039523,97.6768,31.3608,236.5008,123.5876,0,U,48948,999,28082,.37595448E-3,.47559E-3,0
HAWK-3A,2021-059CG,2026-07-06T02:55:28.475040,15.71234940,.00038779,97.6711,28.5502,239.3503,120.7377,0,U,48957,999,28082,.36797085E-3,.46539E-3,0
HAWK-5C,2022-057Y,2026-07-06T00:04:43.758336,15.52089027,.00036666,97.6618,347.8946,20.7469,339.3931,0,U,52754,999,22926,.31957256E-3,.19207E-3,0
HAWK-5B,2022-057AA,2026-07-06T00:04:27.653376,15.52093432,.00042351,97.6634,346.2460,8.8128,351.3197,0,U,52756,999,22926,.31587044E-3,.18987E-3,0
HAWK-5A,2022-057AB,2026-07-06T00:04:10.815744,15.52093297,.00041444,97.6630,347.0770,13.4808,346.6554,0,U,52757,999,22926,.31970525E-3,.19219E-3,0
HAWK-6B,2023-011A,2026-07-06T04:46:46.248096,15.23102486,.00027859,40.4971,241.1695,190.4907,169.5845,0,U,55324,999,19074,.18717555E-3,.4315E-4,0
HAWK-6C,2023-011C,2026-07-06T04:45:52.617888,15.23102213,.00031456,40.4956,238.0092,174.9313,185.1529,0,U,55326,999,19075,.19929152E-3,.4607E-4,0
HAWK-6A,2023-011D,2026-07-05T20:53:49.863264,15.23100588,.00026376,40.4968,241.5485,171.7318,188.3536,0,U,55327,999,19070,.22439159E-3,.5212E-4,0
HAWK-7A,2023-054P,2026-07-06T04:10:30.216576,15.27568320,.00024713,97.2675,74.0282,10.6720,349.4572,0,U,56191,999,17992,.23140494E-3,.6167E-4,0
HAWK-7B,2023-054R,2026-07-06T04:10:23.975040,15.27571083,.00023133,97.2700,72.2989,33.4452,326.6934,0,U,56193,999,17992,.22599008E-3,.6021E-4,0
HAWK-7C,2023-054Y,2026-07-06T04:10:14.224800,15.27569727,.0002007,97.2677,73.0614,21.3851,338.7472,0,U,56200,999,17992,.22695343E-3,.6047E-4,0
